25162,GLOBALSTAR M001,1998,116.3,-1.0,-,52.0,Inactive,0,LEO,USA,Globalstar,Unknown,Unknown,Delta,1 25162U 98008A   23231.67757990 -.00000053  00000+0  33386-3 0  9996,2 25162  52.0026 115.9840 0001312 315.1462  89.4837 12.38166655161134,12.38166655,0.0001312,LEO
25163,GLOBALSTAR M004,1998,113.98,-1.0,-,52.0,Inactive,0,LEO,USA,Globalstar,Unknown,Unknown,Delta,1 25163U 98008B   23231.17761808 -.00000029  00000+0  41153-3 0  9999,2 25163  51.9994 291.9987 0002837 238.8695 150.7520 12.63336479177359,12.63336479,0.0002837,LEO
25164,GLOBALSTAR M002,1998,123.98,-1.0,-,52.0,Inactive,0,LEO,USA,Globalstar,Unknown,Unknown,Delta,1 25164U 98008C   23231.09772699 -.00000046  00000+0  60155-3 0  9993,2 25164  52.0006 115.3043 0001915  16.5124 343.5758 11.61495214106506,11.61495214,0.0001915,LEO
25165,GLOBALSTAR M003,1998,118.82,-1.0,-,51.97,Inactive,0,LEO,USA,Globalstar,Unknown,Unknown,Delta,1 25165U 98008D   23231.20761135  .00000024  00000+0  12097-2 0  9996,2 25165  51.9687 218.7202 0007854  29.6236  55.8414 12.11929727152311,12.11929727,0.0007854,LEO
25306,GLOBALSTAR M014,1998,123.56,-1.0,-,51.98,Inactive,0,LEO,USA,Globalstar,Unknown,Unknown,Delta,1 25306U 98023A   23230.86321917 -.00000080  00000+0 -51157-4 0  9997,2 25306  51.9846  53.1613 0000647 143.8396 354.0143 11.65458837113239,11.65458837,6.47e-05,LEO
25307,GLOBALSTAR M006,1998,124.34,-1.0,-,51.99,Inactive,0,LEO,USA,Globalstar,Unknown,Unknown,Delta,1 25307U 98023B   23231.82261373 -.00000084  00000+0 -17747-3 0  9994,2 25307  51.9939  78.2676 0003746   0.8679 111.0488 11.58153123139614,11.58153123,0.0003746,LEO
25308,GLOBALSTAR M015,1998,125.34,-1.0,-,51.98,Inactive,0,LEO,USA,Globalstar,Unknown,Unknown,Delta,1 25308U 98023C   23231.79593328 -.00000089  00000+0 -35049-3 0  9999,2 25308  51.9813 146.2304 0012655 332.9062  63.4564 11.48849031117748,11.48849031,0.0012655,LEO
25309,GLOBALSTAR M008,1998,116.5,-1.0,-,52.0,Inactive,0,LEO,USA,Globalstar,Unknown,Unknown,Delta,1 25309U 98023D   23230.82655350 -.00000074  00000+0  17580-3 0  9990,2 25309  51.9997 335.7280 0002603 191.6130 323.5413 12.36025501155503,12.36025501,0.0002603,LEO
